EXCITE                  
1 43819U 18099BP  26068.69809098  .00002813  00000+0  19631-3 0  9999
2 43819  97.4107 111.3606 0017626 337.4818  22.5634 15.06036758396774
STARLINK-6130           
1 57104U 23090D   26068.58467002 -.00000198  00000+0  40166-6 0  9996
2 57104  43.0030 275.5631 0001356 267.2394  92.8293 15.02534316150397
