[{"OBJECT_NAME":"EXCITE","OBJECT_ID":"2018-099BP","EPOCH":"2026-03-09T16:45:15.060672","MEAN_MOTION":15.06036758,"ECCENTRICITY":0.0017626,"INCLINATION":97.4107,"RA_OF_ASC_NODE":111.3606,"ARG_OF_PERICENTER":337.4818,"MEAN_ANOMALY":22.5634,"EPHEMERIS_TYPE":0,"CLASSIFICATION_TYPE":"U","NORAD_CAT_ID":43819,"ELEMENT_SET_NO":999,"REV_AT_EPOCH":39677,"BSTAR":0.00019631388,"MEAN_MOTION_DOT":2.813e-5,"MEAN_MOTION_DDOT":0},{"OBJECT_NAME":"STARLINK-6130","OBJECT_ID":"2023-090D","EPOCH":"2026-03-09T14:01:55.489728","MEAN_MOTION":15.02534316,"ECCENTRICITY":0.0001356,"INCLINATION":43.003,"RA_OF_ASC_NODE":275.5631,"ARG_OF_PERICENTER":267.2394,"MEAN_ANOMALY":92.8293,"EPHEMERIS_TYPE":0,"CLASSIFICATION_TYPE":"U","NORAD_CAT_ID":57104,"ELEMENT_SET_NO":999,"REV_AT_EPOCH":15039,"BSTAR":4.0166e-7,"MEAN_MOTION_DOT":-1.98e-6,"MEAN_MOTION_DDOT":0}]
